[{"OBJECT_NAME":"STARLINK-32091","OBJECT_ID":"2024-086C","EPOCH":"2026-03-09T23:34:49.829088","MEAN_MOTION":15.27567165,"ECCENTRICITY":0.00010357,"INCLINATION":43.0011,"RA_OF_ASC_NODE":50.7412,"ARG_OF_PERICENTER":266.0164,"MEAN_ANOMALY":94.057,"EPHEMERIS_TYPE":0,"CLASSIFICATION_TYPE":"U","NORAD_CAT_ID":59684,"ELEMENT_SET_NO":999,"REV_AT_EPOCH":10425,"BSTAR":0.0001172637,"MEAN_MOTION_DOT":2.965e-5,"MEAN_MOTION_DDOT":0},{"OBJECT_NAME":"CZ-4B DEB","OBJECT_ID":"2006-015E","EPOCH":"2026-03-09T20:34:53.082912","MEAN_MOTION":15.19885806,"ECCENTRICITY":0.00461993,"INCLINATION":98.0565,"RA_OF_ASC_NODE":201.7753,"ARG_OF_PERICENTER":62.4887,"MEAN_ANOMALY":298.1031,"EPHEMERIS_TYPE":0,"CLASSIFICATION_TYPE":"U","NORAD_CAT_ID":29538,"ELEMENT_SET_NO":999,"REV_AT_EPOCH":5389,"BSTAR":0.0022587151,"MEAN_MOTION_DOT":0.00050103,"MEAN_MOTION_DDOT":0}]
